{"type": "FeatureCollection", "features": [ {"type": "Feature", "properties": {"norad_id": 66660, "name": "K-HERO", "group": "last-30-days", "lat": -21.77691253971517, "lon": -78.44811863481591, "alt_km": 591.5975020036667, "timestamp": "2025-12-17T07:00:45.612542+00:00", "meta": {"OBJECT_NAME": "K-HERO", "OBJECT_ID": "2025-274L", "EPOCH": "2025-12-16T18:14:34.166688", "MEAN_MOTION": 14.92985519, "ECCENTRICITY": 0.00124902, "INCLINATION": 97.7401, "RA_OF_ASC_NODE": 277.9137, "ARG_OF_PERICENTER": 265.9128, "MEAN_ANOMALY": 94.0664, "EPHEMERIS_TYPE": 0, "CLASSIFICATION_TYPE": "U", "NORAD_CAT_ID": 66660, "ELEMENT_SET_NO": 999, "REV_AT_EPOCH": 300, "BSTAR": 0.00027626921, "MEAN_MOTION_DOT": 2.818e-05, "MEAN_MOTION_DDOT": 0}, "tle": {"line1": "1 66660U 25274L   25350.76011767  .00002818  00000+0  27627-3 0  9999", "line2": "2 66660  97.7401 277.9137 0012490 265.9128  94.0664 14.92985519  3004"}}, "geometry": {"type": "Point", "coordinates": [-78.44811863481591, -21.77691253971517]}}, {"type": "Feature", "properties": {"norad_id": 66661, "name": "SNUGLITE-III", "group": "last-30-days", "lat": -11.046363268329376, "lon": -80.03775588993156, "alt_km": 591.5240067205668, "timestamp": "2025-12-17T07:00:45.612552+00:00", "meta": {"OBJECT_NAME": "SNUGLITE-III", "OBJECT_ID": "2025-274M", "EPOCH": "2025-12-16T18:11:43.990656", "MEAN_MOTION": 14.93120538, "ECCENTRICITY": 0.00131165, "INCLINATION": 97.7398, "RA_OF_ASC_NODE": 277.9154, "ARG_OF_PERICENTER": 267.2195, "MEAN_ANOMALY": 92.7523, "EPHEMERIS_TYPE": 0, "CLASSIFICATION_TYPE": "U", "NORAD_CAT_ID": 66661, "ELEMENT_SET_NO": 999, "REV_AT_EPOCH": 300, "BSTAR": 0.00024492844, "MEAN_MOTION_DOT": 2.501e-05, "MEAN_MOTION_DDOT": 0}, "tle": {"line1": "1 66661U 25274M   25350.75814804  .00002501  00000+0  24493-3 0  9999", "line2": "2 66661  97.7398 277.9154 0013116 267.2195  92.7523 14.93120538  3006"}}, "geometry": {"type": "Point", "coordinates": [-80.03775588993156, -11.046363268329376]}}, {"type": "Feature", "properties": {"norad_id": 66662, "name": "2025-274N", "group": "last-30-days", "lat": -6.838515299048992, "lon": -80.6225517892126, "alt_km": 591.617907189695, "timestamp": "2025-12-17T07:00:45.612566+00:00", "meta": {"OBJECT_NAME": "2025-274N", "OBJECT_ID": "2025-274N", "EPOCH": "2025-12-16T18:10:37.358976", "MEAN_MOTION": 14.93174702, "ECCENTRICITY": 0.00135449, "INCLINATION": 97.7397, "RA_OF_ASC_NODE": 277.9167, "ARG_OF_PERICENTER": 266.7886, "MEAN_ANOMALY": 93.1784, "EPHEMERIS_TYPE": 0, "CLASSIFICATION_TYPE": "U", "NORAD_CAT_ID": 66662, "ELEMENT_SET_NO": 999, "REV_AT_EPOCH": 300, "BSTAR": 0.00025736479, "MEAN_MOTION_DOT": 2.634e-05, "MEAN_MOTION_DDOT": 0}, "tle": {"line1": "1 66662U 25274N   25350.75737684  .00002634  00000+0  25736-3 0  9998", "line2": "2 66662  97.7397 277.9167 0013544 266.7886  93.1784 14.93174702  3002"}}, "geometry": {"type": "Point", "coordinates": [-80.6225517892126, -6.838515299048992]}}, {"type": "Feature", "properties": {"norad_id": 66663, "name": "KSLV-II R/B", "group": "last-30-days", "lat": -55.410850528496205, "lon": -70.02765817741226, "alt_km": 543.9359258994718, "timestamp": "2025-12-17T07:00:45.612576+00:00", "meta": {"OBJECT_NAME": "KSLV-II R/B", "OBJECT_ID": "2025-274P", "EPOCH": "2025-12-16T16:49:36.043104", "MEAN_MOTION": 14.97367588, "ECCENTRICITY": 0.00548465, "INCLINATION": 97.7431, "RA_OF_ASC_NODE": 278.0066, "ARG_OF_PERICENTER": 305.8627, "MEAN_ANOMALY": 53.7508, "EPHEMERIS_TYPE": 0, "CLASSIFICATION_TYPE": "U", "NORAD_CAT_ID": 66663, "ELEMENT_SET_NO": 999, "REV_AT_EPOCH": 300, "BSTAR": 0.00058875803, "MEAN_MOTION_DOT": 6.993e-05, "MEAN_MOTION_DDOT": 0}, "tle": {"line1": "1 66663U 25274P   25350.70111161  .00006993  00000+0  58876-3 0  9993", "line2": "2 66663  97.7431 278.0066 0054846 305.8627  53.7508 14.97367588  3006"}}, "geometry": {"type": "Point", "coordinates": [-70.02765817741226, -55.410850528496205]}}, {"type": "Feature", "properties": {"norad_id": 66664, "name": "SOYUZ-MS 28", "group": "last-30-days", "lat": -43.709392936522406, "lon": -10.832898370414398, "alt_km": 420.1232244922239, "timestamp": "2025-12-17T07:00:45.612587+00:00", "meta": {"OBJECT_NAME": "SOYUZ-MS 28", "OBJECT_ID": "2025-275A", "EPOCH": "2025-12-16T20:41:13.172928", "MEAN_MOTION": 15.49626059, "ECCENTRICITY": 0.00031782, "INCLINATION": 51.6308, "RA_OF_ASC_NODE": 122.0659, "ARG_OF_PERICENTER": 259.3256, "MEAN_ANOMALY": 100.7375, "EPHEMERIS_TYPE": 0, "CLASSIFICATION_TYPE": "U", "NORAD_CAT_ID": 66664, "ELEMENT_SET_NO": 999, "REV_AT_EPOCH": 128, "BSTAR": 0.00014251236, "MEAN_MOTION_DOT": 7.581e-05, "MEAN_MOTION_DDOT": 0}, "tle": {"line1": "1 66664U 25275A   25350.86195802  .00007581  00000+0  14251-3 0  9999", "line2": "2 66664  51.6308 122.0659 0003178 259.3256 100.7375 15.49626059  1280"}}, "geometry": {"type": "Point", "coordinates": [-10.832898370414398, -43.709392936522406]}}, {"type": "Feature", "properties": {"norad_id": 66791, "name": "STARLINK-35867", "group": "last-30-days", "lat": 29.926191549139602, "lon": -97.56720490582332, "alt_km": 340.48622560022886, "timestamp": "2025-12-17T07:00:45.612598+00:00", "meta": {"OBJECT_NAME": "STARLINK-35867", "OBJECT_ID": "2025-278A", "EPOCH": "2025-12-16T22:00:03.000096", "MEAN_MOTION": 15.75940776, "ECCENTRICITY": 0.000161, "INCLINATION": 42.9986, "RA_OF_ASC_NODE": 226.5593, "ARG_OF_PERICENTER": 276.3049, "MEAN_ANOMALY": 158.4498, "EPHEMERIS_TYPE": 0, "CLASSIFICATION_TYPE": "U", "NORAD_CAT_ID": 66791, "ELEMENT_SET_NO": 999, "REV_AT_EPOCH": 362, "BSTAR": -0.0075306667, "MEAN_MOTION_DOT": -0.01080793, "MEAN_MOTION_DDOT": 0}, "tle": {"line1": "1 66791U 25278A   25350.91670139 -.01080793  00000+0 -75307-2 0  9997", "line2": "2 66791  42.9986 226.5593 0001610 276.3049 158.4498 15.75940776  3621"}}, "geometry": {"type": "Point", "coordinates": [-97.56720490582332, 29.926191549139602]}}, {"type": "Feature", "properties": {"norad_id": 66792, "name": "STARLINK-35990", "group": "last-30-days", "lat": 30.94208139500259, "lon": -95.68200315438438, "alt_km": 340.29365425521337, "timestamp": "2025-12-17T07:00:45.612609+00:00", "meta": {"OBJECT_NAME": "STARLINK-35990", "OBJECT_ID": "2025-278B", "EPOCH": "2025-12-16T22:00:03.000096", "MEAN_MOTION": 15.75944979, "ECCENTRICITY": 0.00016917, "INCLINATION": 42.9985, "RA_OF_ASC_NODE": 226.5544, "ARG_OF_PERICENTER": 281.6621, "MEAN_ANOMALY": 155.0079, "EPHEMERIS_TYPE": 0, "CLASSIFICATION_TYPE": "U", "NORAD_CAT_ID": 66792, "ELEMENT_SET_NO": 999, "REV_AT_EPOCH": 362, "BSTAR": -0.0075852706, "MEAN_MOTION_DOT": -0.0108805, "MEAN_MOTION_DDOT": 0}, "tle": {"line1": "1 66792U 25278B   25350.91670139 -.01088050  00000+0 -75853-2 0  9998", "line2": "2 66792  42.9985 226.5544 0001691 281.6621 155.0079 15.75944979  3628"}}, "geometry": {"type": "Point", "coordinates": [-95.68200315438438, 30.94208139500259]}}, {"type": "Feature", "properties": {"norad_id": 66793, "name": "STARLINK-36051", "group": "last-30-days", "lat": 32.88652142044015, "lon": -91.79356344918115, "alt_km": 340.4885380877031, "timestamp": "2025-12-17T07:00:45.612619+00:00", "meta": {"OBJECT_NAME": "STARLINK-36051", "OBJECT_ID": "2025-278C", "EPOCH": "2025-12-16T22:00:03.000096", "MEAN_MOTION": 15.75663351, "ECCENTRICITY": 0.00019336, "INCLINATION": 42.9987, "RA_OF_ASC_NODE": 226.5443, "ARG_OF_PERICENTER": 272.823, "MEAN_ANOMALY": 167.918, "EPHEMERIS_TYPE": 0, "CLASSIFICATION_TYPE": "U", "NORAD_CAT_ID": 66793, "ELEMENT_SET_NO": 999, "REV_AT_EPOCH": 353, "BSTAR": -0.00582608, "MEAN_MOTION_DOT": -0.00834522, "MEAN_MOTION_DDOT": 0}, "tle": {"line1": "1 66793U 25278C   25350.91670139 -.00834522  00000+0 -58261-2 0  9995", "line2": "2 66793  42.9987 226.5443 0001933 272.8230 167.9180 15.75663351  3533"}}, "geometry": {"type": "Point", "coordinates": [-91.79356344918115, 32.88652142044015]}}, {"type": "Feature", "properties": {"norad_id": 66794, "name": "STARLINK-36062", "group": "last-30-days", "lat": 31.927903366077636, "lon": -93.76101151228053, "alt_km": 340.45300774304724, "timestamp": "2025-12-17T07:00:45.612632+00:00", "meta": {"OBJECT_NAME": "STARLINK-36062", "OBJECT_ID": "2025-278D", "EPOCH": "2025-12-16T22:00:03.000096", "MEAN_MOTION": 15.75759817, "ECCENTRICITY": 0.00018365, "INCLINATION": 42.9984, "RA_OF_ASC_NODE": 226.5488, "ARG_OF_PERICENTER": 279.1991, "MEAN_ANOMALY": 159.555, "EPHEMERIS_TYPE": 0, "CLASSIFICATION_TYPE": "U", "NORAD_CAT_ID": 66794, "ELEMENT_SET_NO": 999, "REV_AT_EPOCH": 362, "BSTAR": -0.0066169247, "MEAN_MOTION_DOT": -0.00939712, "MEAN_MOTION_DDOT": 0}, "tle": {"line1": "1 66794U 25278D   25350.91670139 -.00939712  00000+0 -66169-2 0  9999", "line2": "2 66794  42.9984 226.5488 0001836 279.1991 159.5550 15.75759817  3627"}}, "geometry": {"type": "Point", "coordinates": [-93.76101151228053, 31.927903366077636]}}, {"type": "Feature", "properties": {"norad_id": 66795, "name": "STARLINK-36047", "group": "last-30-days", "lat": 33.81000920148565, "lon": -89.79167699806762, "alt_km": 340.1279090163771, "timestamp": "2025-12-17T07:00:45.612642+00:00", "meta": {"OBJECT_NAME": "STARLINK-36047", "OBJECT_ID": "2025-278E", "EPOCH": "2025-12-16T22:00:03.000096", "MEAN_MOTION": 15.75494769, "ECCENTRICITY": 0.00016711, "INCLINATION": 42.9987, "RA_OF_ASC_NODE": 226.539, "ARG_OF_PERICENTER": 279.6843, "MEAN_ANOMALY": 163.0882, "EPHEMERIS_TYPE": 0, "CLASSIFICATION_TYPE": "U", "NORAD_CAT_ID": 66795, "ELEMENT_SET_NO": 999, "REV_AT_EPOCH": 353, "BSTAR": -0.0044690904, "MEAN_MOTION_DOT": -0.00649521, "MEAN_MOTION_DDOT": 0}, "tle": {"line1": "1 66795U 25278E   25350.91670139 -.00649521  00000+0 -44691-2 0  9992", "line2": "2 66795  42.9987 226.5390 0001671 279.6843 163.0882 15.75494769  3531"}}, "geometry": {"type": "Point", "coordinates": [-89.79167699806762, 33.81000920148565]}}]}